{
    "links": {
        "self": "http://www.neowsapp.com/rest/v1/neo/3676115?api_key=iIulBulltgU6a56xZRHN4H3l9WmuAYTsLGpBGhQ2"
    },
    "id": "3676115",
    "neo_reference_id": "3676115",
    "name": "(2014 ON207)",
    "designation": "2014 ON207",
    "nasa_jpl_url": "http://ssd.jpl.nasa.gov/sbdb.cgi?sstr=3676115",
    "absolute_magnitude_h": 23.2,
    "estimated_diameter": {
        "kilometers": {
            "estimated_diameter_min": 0.0608912622,
            "estimated_diameter_max": 0.1361570015
        },
        "meters": {
            "estimated_diameter_min": 60.8912622106,
            "estimated_diameter_max": 136.1570015386
        },
        "miles": {
            "estimated_diameter_min": 0.0378360645,
            "estimated_diameter_max": 0.0846040122
        },
        "feet": {
            "estimated_diameter_min": 199.7744887109,
            "estimated_diameter_max": 446.7093369279
        }
    },
    "is_potentially_hazardous_asteroid": false,
    "close_approach_data": [
        {
            "close_approach_date": "2014-07-13",
            "close_approach_date_full": "2014-Jul-13 01:48",
            "epoch_date_close_approach": 1405216080000,
            "relative_velocity": {
                "kilometers_per_second": "5.028457676",
                "kilometers_per_hour": "18102.4476334914",
                "miles_per_hour": "11248.1569753769"
            },
            "miss_distance": {
                "astronomical": "0.1852670116",
                "lunar": "72.0688675124",
                "kilometers": "27715550.316625292",
                "miles": "17221644.3884893496"
            },
            "orbiting_body": "Earth"
        }
    ],
    "orbital_data": {
        "orbit_id": "6",
        "orbit_determination_date": "2017-04-06 08:39:30",
        "first_observation_date": "2014-07-28",
        "last_observation_date": "2014-08-15",
        "data_arc_in_days": 18,
        "observations_used": 15,
        "orbit_uncertainty": "7",
        "minimum_orbit_intersection": ".186097",
        "jupiter_tisserand_invariant": "3.475",
        "epoch_osculation": "2459000.5",
        "eccentricity": ".464266194123322",
        "semi_major_axis": "2.244141732875633",
        "inclination": "6.457113513048224",
        "ascending_node_longitude": "113.069140019725",
        "orbital_period": "1227.930678973615",
        "perihelion_distance": "1.202262591480146",
        "perihelion_argument": "176.9461697178811",
        "aphelion_distance": "3.28602087427112",
        "perihelion_time": "2459307.565481633933",
        "mean_anomaly": "269.9757215280137",
        "mean_motion": ".2931761590164939",
        "equinox": "J2000",
        "orbit_class": {
            "orbit_class_type": "AMO",
            "orbit_class_description": "Near-Earth asteroid orbits similar to that of 1221 Amor",
            "orbit_class_range": "1.017 AU < q (perihelion) < 1.3 AU"
        }
    },
    "is_sentry_object": false
}